HELLAS-SAT 3            
1 42814U 17040A   26063.79836745  .00000142  00000+0  00000+0 0  9992
2 42814   0.0557  30.4614 0005121 331.8313 126.6836  1.00276132 31768
GSAT-17                 
1 42815U 17040B   26064.00277631 -.00000267  00000+0  00000+0 0  9990
2 42815   0.0397 299.9445 0004980 347.8839 329.4053  1.00269919 31744
INTELSAT 35E (IS-35E)   
1 42818U 17041A   26064.17683491 -.00000247  00000+0  00000+0 0  9995
2 42818   0.0257 241.7413 0002225 103.6087 206.6953  1.00270890 31773
COSMOS 2520             
1 42907U 17046A   26063.78725220  .00000126  00000+0  00000+0 0  9997
2 42907   0.0284 103.8318 0000786  15.3936  11.7225  1.00275063 31354
TDRS 13                 
1 42915U 17047A   26064.22439044 -.00000107  00000+0  00000+0 0  9993
2 42915   3.4297   0.0855 0010319  98.9678 133.2126  1.00272273 31306
QZS-3 (MICHIBIKI-3)     
1 42917U 17048A   26064.26016903 -.00000356  00000+0  00000+0 0  9991
2 42917   0.0706 215.3380 0002278 141.4927  26.8119  1.00275882 31214
AMAZONAS 5              
1 42934U 17053A   26063.15044815  .00000000  00000+0  00000+0 0  9991
2 42934   0.0068 291.1162 0005421  42.1232 181.8425  1.00267618 30997
ASIASAT 9               
1 42942U 17057A   26063.91073831 -.00000369  00000+0  00000+0 0  9997
2 42942   0.0119 141.0263 0002253 201.3050 270.2898  1.00272916 30810
INTELSAT 37E (IS-37E)   
1 42950U 17059A   26064.18239259 -.00000150  00000+0  00000+0 0  9994
2 42950   0.0085 107.7768 0002156 235.3434 227.4473  1.00271578 31025
BSAT-4A                 
1 42951U 17059B   26064.15947421  .00000000  00000+0  00000+0 0  9992
2 42951   0.0152 357.3822 0004228  29.8220 302.9756  1.00268920 30755
QZS-4 (MICHIBIKI-4)     
1 42965U 17062A   26063.49969188 -.00000343  00000+0  00000+0 0  9992
2 42965  40.1729 344.8221 0748648 269.8938 227.8704  1.00280862 30759
SES-11 (ECHOSTAR 105)   
1 42967U 17063A   26064.20584368 -.00000098  00000+0  00000+0 0  9995
2 42967   0.0386  71.4662 0002894 270.8534 149.7752  1.00272288 30687
KOREASAT 5A             
1 42984U 17067A   26064.15947421  .00000000  00000+0  00000+0 0  9997
2 42984   0.0195 139.0749 0001939 239.9109 314.4954  1.00268109 30484
ALCOMSAT 1              
1 43039U 17078A   26064.22170376 -.00000195  00000+0  00000+0 0  9992
2 43039   0.0599 267.8684 0002906  61.7162 248.3928  1.00272337 30256
SBIRS GEO-3 (USA 282)   
1 43162U 18009A   26064.05226966  .00000120  00000+0  00000+0 0  9999
2 43162   2.1227   6.9527 0002335 335.8434  39.4014  1.00273032 29802
AL YAH 3                
1 43174U 18012A   26064.18239259 -.00000164  00000+0  00000+0 0  9998
2 43174   1.2832  84.4420 0004291 269.8212 214.2107  1.00271838 29801
SES-14                  
1 43175U 18012B   26063.34350089 -.00000290  00000+0  00000+0 0  9991
2 43175   0.0143  70.4742 0000973 272.4657 255.3040  1.00271323  5975
GOES 17                 
1 43226U 18022A   26064.20896369 -.00000191  00000+0  00000+0 0  9991
2 43226   0.6702  87.5386 0002204 223.0782 198.0411  1.00270294 29384
HISPASAT 30W-6          
1 43228U 18023A   26063.45322368 -.00000228  00000+0  00000+0 0  9994
2 43228   0.0478  45.4974 0005343 315.0454 294.7873  1.00270496 29358
SUPERBIRD-B3            
1 43271U 18033A   26064.25879726  .00000000  00000+0  00000+0 0  9994
2 43271   0.0222 157.7387 0001462 212.8183  47.5981  1.00269471 29017
HYLAS 4                 
1 43272U 18033B   26064.21997042 -.00000243  00000+0  00000+0 0  9993
2 43272   0.0245 102.2260 0001309 270.6010 195.7400  1.00268807 29024
IRNSS-1I                
1 43286U 18035A   26063.09664075  .00000085  00000+0  00000+0 0  9995
2 43286  28.9289  75.8190 0019067 190.3573 345.5673  1.00277479 29027
USA 283                 
1 43339U 18036A   26062.82694310 -.00000331  00000+0  00000+0 0  9995
2 43339   0.0172 128.2274 0000778 251.2663 213.8636  1.00271212 24233
COSMOS 2526             
1 43432U 18037A   26063.81086362 -.00000354  00000+0  00000+0 0  9997
2 43432   0.0044 170.9156 0000647  98.7173 312.8956  1.00282662 28918
APSTAR-6C               
1 43450U 18041A   26063.96903267 -.00000327  00000+0  00000+0 0  9990
2 43450   0.0515 348.5897 0003136 353.0501 303.9228  1.00272346 28768
BANGABANDHUSAT-1        
1 43463U 18044A   26063.74211446 -.00000373  00000+0  00000+0 0  9995
2 43463   0.0114 165.5074 0002641 189.7983 193.4151  1.00269981 28666
SES-12                  
1 43488U 18049A   26064.17058906  .00000000  00000+0  00000+0 0  9991
2 43488   0.0166 121.0370 0001794 184.3704  13.9195  1.00264640 28375
FENGYUN 2H              
1 43491U 18050A   26064.17100354 -.00000135  00000+0  00000+0 0  9992
2 43491   2.7627  80.3493 0001859 174.7166  48.4710  1.00272568 28396
BEIDOU-2 IGSO-7         
1 43539U 18057A   26056.73984515 -.00000161  00000+0  00000+0 0  9993
2 43539  55.1859 164.0342 0099962 236.5988 133.5173  1.00284731 28015
TELSTAR 19V             
1 43562U 18059A   26064.28549071 -.00000288  00000+0  00000+0 0  9994
2 43562   0.0203 164.4510 0000660 261.3517 136.9810  1.00271665 28102
TELKOM 4 (MERAH PUTIH)  
1 43587U 18064A   26064.16503164 -.00000353  00000+0  00000+0 0  9990
2 43587   0.0074 136.0373 0001743 247.0480 307.2078  1.00270281 27831
TELSTAR 18V             
1 43611U 18069A   26064.22822530 -.00000303  00000+0  00000+0 0  9996
2 43611   0.0180 200.6490 0002073 146.0140  36.4533  1.00271033 27588
AZERSPACE 2 (IS-38)     
1 43632U 18074A   26064.23539716  .00000000  00000+0  00000+0 0  9990
2 43632   0.0249 144.8365 0001446 215.2621 292.7357  1.00271096 27404
HORIZONS-3E             
1 43633U 18074B   26064.19420204  .00000000  00000+0  00000+0 0  9997
2 43633   0.0086 164.0541 0000546 193.4122  44.3725  1.00270199 27297
AEHF-4 (USA 288)        
1 43651U 18079A   26064.28453737 -.00000283  00000+0  00000+0 0  9993
2 43651   1.4228 354.7677 0064091 359.1347 204.0328  1.00273057 27259
BEIDOU-3 G1             
1 43683U 18085A   26064.25437725 -.00000286  00000+0  00000+0 0  9994
2 43683   2.8129 100.3639 0001393  21.2833 272.9442  1.00268333 27011
GSAT-29                 
1 43698U 18089A   26064.23756384  .00000077  00000+0  00000+0 0  9994
2 43698   0.0559 273.3323 0001752  57.4700 332.7053  1.00272199 26745
ES'HAIL 2               
1 43700U 18090A   26064.20114200  .00000135  00000+0  00000+0 0  9997
2 43700   0.0115 210.4503 0002702 169.4927 241.1802  1.00271800 26631
GEO-KOMPSAT-2A          
1 43823U 18100A   26063.26502859  .00000000  00000+0  00000+0 0  9992
2 43823   0.0084  82.1864 0001750 326.5345 336.9688  1.00267019 26573
GSAT-11                 
1 43824U 18100B   26064.18169902 -.00000086  00000+0  00000+0 0  9998
2 43824   0.0840 271.1330 0005062 144.7455 246.4328  1.00271922 26433
GSAT-7A                 
1 43864U 18105A   26064.24142066  .00000018  00000+0  00000+0 0  9990
2 43864   0.0971 277.8495 0001981  57.1024 337.6605  1.00271384 26402
COSMOS 2533             
1 43867U 18107A   26064.18725389 -.00000048  00000+0  00000+0 0  9997
2 43867   0.0170 116.5664 0000309 338.3571 205.4051  1.00276291 26394
TJS-3                   
1 43874U 18110A   26063.85696818 -.00000228  00000+0  00000+0 0  9996
2 43874   2.2759  81.7816 0016881 345.0537 131.2773  1.00349513 26373
ZHONGXING-2D            
1 43920U 19001A   26064.03848961 -.00000346  00000+0  00000+0 0  9998
2 43920   0.0534 296.8670 0001139 356.5707  13.2101  1.00271607 53030
HELLAS-SAT 4 & SGS-1    
1 44034U 19007A   26063.26989119  .00000140  00000+0  00000+0 0  9997
2 44034   0.0662 126.1326 0003179  30.1345 141.9147  1.00269332 26313
GSAT-31                 
1 44035U 19007B   26064.18169615  .00000117  00000+0  00000+0 0  9995
2 44035   0.0345 264.6048 0004570  41.5958 329.9804  1.00270962 25928
NUSANTARA SATU          
1 44048U 19009A   26063.52197821 -.00000246  00000+0  00000+0 0  9992
2 44048   0.0283 131.5344 0001530 315.9846  48.6457  1.00271077 25726
ZHONGXING-6C            
1 44067U 19012A   26063.91713204 -.00000345  00000+0  00000+0 0  9999
2 44067   0.0447  60.0431 0008667 330.0317 233.1554  1.00270288 25699
WGS 10 (USA 291)        
1 44071U 19014A   26064.24142066  .00000000  00000+0  00000+0 0  9992
2 44071   0.0244 144.0366 0000414 239.4153 286.7290  1.00249302 25572
TIANLIAN 2-01           
1 44076U 19017A   26064.18169902 -.00000115  00000+0  00000+0 0  9999
2 44076   0.2719  82.3573 0003279 222.5008   0.4729  1.00271628 25602
ARABSAT-6A              
1 44186U 19021A   26064.23271049  .00000145  00000+0  00000+0 0  9990
2 44186   0.0511 338.7921 0003430 344.3143 314.1179  1.00269221 25115
BEIDOU-3 IGSO-1         
1 44204U 19023A   26063.82970532 -.00000208  00000+0  00000+0 0  9991
2 44204  58.5544  38.7210 0026001 236.4823 305.2336  1.00270861  6165
BEIDOU-2 G8             
1 44231U 19027A   26063.42864138 -.00000263  00000+0  00000+0 0  9996
2 44231   1.3928  74.2820 0011710 280.8825 105.6990  1.00247794 25039
YAMAL 601               
1 44307U 19031A   26063.79280983  .00000110  00000+0  00000+0 0  9995
2 44307   0.0119 125.8980 0002618 221.4795 149.5508  1.00272733 24879
AT&T T-16               
1 44333U 19034A   26064.15391735 -.00000124  00000+0  00000+0 0  9992
2 44333   0.0260  99.4351 0000898  70.8775 307.1124  1.00273465 24593
EUTELSAT 7C             
1 44334U 19034B   26064.12058863  .00000039  00000+0  00000+0 0  9996
2 44334   0.0718 178.1433 0003280 153.1021 241.9864  1.00270612  5793
BEIDOU-3 IGSO-2         
1 44337U 19035A   26057.68879618 -.00000176  00000+0  00000+0 0  9995
2 44337  55.2338 159.8353 0038734 206.4752 153.7223  1.00247364 24561
COSMOS 2539             
1 44457U 19048A   26064.22907046  .00000073  00000+0  00000+0 0  9992
2 44457   0.0186 111.8415 0000623 252.9215 252.6553  1.00275091 24187
EDRS-C                  
1 44475U 19049A   26064.25489724 -.00000271  00000+0  00000+0 0  9995
2 44475   0.0327 119.0948 0001300 233.8617  44.2860  1.00271980 24169
